NORAD_CAT_ID,OBJECT_NAME,OBJECT_TYPE,EPOCH,MEAN_MOTION,ECCENTRICITY,INCLINATION,RA_OF_ASC_NODE,ARG_OF_PERICENTER,MEAN_ANOMALY,BSTAR,MEAN_MOTION_DOT,MEAN_MOTION_DDOT,TLE_LINE0,TLE_LINE1,TLE_LINE2,SEMIMAJOR_AXIS,PERIOD,APOGEE,PERIGEE,DECAYED
53531.0,STARLINK-4487,PAYLOAD,2023-05-14 20:49:44,15.08842627,0.0001248,53.2185,17.1735,86.096,274.0174,-2.297e-05,-6.53e-06,0.0,0 STARLINK-4487,1 53531U 22101E   23134.86787779 -.00000653  00000-0 -22970-4 0  9995,2 53531  53.2185  17.1735 0001248  86.0960 274.0174 15.08842627 40698,6917.872,95.437,540.601,538.874,0.0
53531.0,STARLINK-4487,PAYLOAD,2023-05-15 09:32:49,15.08840058,0.0001141,53.218,14.7927,91.7773,268.335,2.553e-05,1.19e-06,0.0,0 STARLINK-4487,1 53531U 22101E   23135.39779589  .00000119  00000-0  25530-4 0  9994,2 53531  53.2180  14.7927 0001141  91.7773 268.3350 15.08840058 40773,6917.88,95.438,540.535,538.956,0.0
53531.0,STARLINK-4487,PAYLOAD,2023-05-15 22:15:54,15.08843888,0.0001172,53.2176,12.4134,89.8464,270.2662,-2.9439e-06,-3.35e-06,0.0,0 STARLINK-4487,1 53531U 22101E   23135.92771426 -.00000335  00000-0 -29439-5 0  9990,2 53531  53.2176  12.4134 0001172  89.8464 270.2662 15.08843888 40853,6917.869,95.437,540.544,538.923,0.0
53531.0,STARLINK-4487,PAYLOAD,2023-05-16 22:06:41,15.08841886,0.0001184,53.2177,7.9531,85.7363,274.3764,2.9912e-05,1.88e-06,0.0,0 STARLINK-4487,1 53531U 22101E   23136.92131411  .00000188  00000-0  29912-4 0  9994,2 53531  53.2177   7.9531 0001184  85.7363 274.3764 15.08841886 41002,6917.875,95.437,540.559,538.921,0.0
53531.0,STARLINK-4487,PAYLOAD,2023-05-17 18:46:42,15.08836429,0.0001063,53.2174,4.0893,81.6735,278.4377,-5.1928e-06,-3.7e-06,0.0,0 STARLINK-4487,1 53531U 22101E   23137.78243883 -.00000370  00000-0 -51928-5 0  9994,2 53531  53.2174   4.0893 0001063  81.6735 278.4377 15.08836429 41138,6917.891,95.438,540.492,539.021,0.0
53531.0,STARLINK-4487,PAYLOAD,2023-05-17 21:57:28,15.0883748,0.0001147,53.2177,3.4931,87.1867,272.9256,3.1188e-05,2.09e-06,0.0,0 STARLINK-4487,1 53531U 22101E   23137.91491679  .00000209  00000-0  31188-4 0  9991,2 53531  53.2177   3.4931 0001147  87.1867 272.9256 15.08837480 41152,6917.888,95.438,540.547,538.96,0.0
53531.0,STARLINK-4487,PAYLOAD,2023-05-18 01:08:15,15.08838265,0.0001159,53.2179,2.8983,87.1788,272.9337,3.6868e-05,2.99e-06,0.0,0 STARLINK-4487,1 53531U 22101E   23138.04739622  .00000299  00000-0  36868-4 0  9998,2 53531  53.2179   2.8983 0001159  87.1788 272.9337 15.08838265 41173,6917.886,95.438,540.552,538.949,0.0
53531.0,STARLINK-4487,PAYLOAD,2023-05-18 15:26:43,15.08832515,0.000117,53.2176,0.2224,89.3319,270.7807,-2.3839e-05,-6.67e-06,0.0,0 STARLINK-4487,1 53531U 22101E   23138.64356346 -.00000667  00000-0 -23839-4 0  9997,2 53531  53.2176   0.2224 0001170  89.3319 270.7807 15.08832515 41267,6917.903,95.438,540.578,538.959,0.0
53531.0,STARLINK-4487,PAYLOAD,2023-05-19 00:59:02,15.08836845,0.0001186,53.2177,358.4382,87.5222,272.5906,9.0093e-06,-1.44e-06,0.0,0 STARLINK-4487,1 53531U 22101E   23139.04100080 -.00000144  00000-0  90093-5 0  9990,2 53531  53.2177 358.4382 0001186  87.5222 272.5906 15.08836845 41328,6917.89,95.438,540.575,538.935,0.0
53531.0,STARLINK-4487,PAYLOAD,2023-05-19 21:39:02,15.08841527,0.000116,53.2172,354.5729,94.7595,265.353,8.0418e-05,9.92e-06,0.0,0 STARLINK-4487,1 53531U 22101E   23139.90211710  .00000992  00000-0  80418-4 0  9997,2 53531  53.2172 354.5729 0001160  94.7595 265.3530 15.08841527 41450,6917.876,95.437,540.543,538.938,0.0
53531.0,STARLINK-4487,PAYLOAD,2023-05-20 00:49:49,15.08843869,0.0001168,53.2173,353.9778,87.8819,272.2307,8.0874e-05,1e-05,0.0,0 STARLINK-4487,1 53531U 22101E   23140.03459561  .00001000  00000-0  80874-4 0  9998,2 53531  53.2173 353.9778 0001168  87.8819 272.2307 15.08843869 41470,6917.869,95.437,540.542,538.926,0.0
53531.0,STARLINK-4487,PAYLOAD,2023-05-20 19:54:26,15.08844108,0.0001207,53.2167,350.4097,87.0998,273.0132,7.975e-05,9.82e-06,0.0,0 STARLINK-4487,1 53531U 22101E   23140.82947520  .00000982  00000-0  79750-4 0  9991,2 53531  53.2167 350.4097 0001207  87.0998 273.0132 15.08844108 41598,6917.868,95.437,540.568,538.898,0.0
53531.0,STARLINK-4487,PAYLOAD,2023-05-20 21:29:49,15.08848558,0.0001238,53.2176,350.1119,84.9624,275.1509,0.00010794,1.431e-05,0.0,0 STARLINK-4487,1 53531U 22101E   23140.89571147  .00001431  00000-0  10794-3 0  9998,2 53531  53.2176 350.1119 0001238  84.9624 275.1509 15.08848558 41602,6917.854,95.437,540.576,538.863,0.0
53531.0,STARLINK-4487,PAYLOAD,2023-05-21 19:45:15,15.08830418,0.0001315,53.2173,345.949,85.3558,274.7584,-0.00010751,-1.998e-05,0.0,0 STARLINK-4487,1 53531U 22101E   23141.82309499 -.00001998  00000-0 -10751-3 0  9994,2 53531  53.2173 345.9490 0001315  85.3558 274.7584 15.08830418 41749,6917.91,95.438,540.684,538.865,0.0
53531.0,STARLINK-4487,PAYLOAD,2023-05-21 22:56:01,15.08827936,0.0001211,53.2176,345.3542,85.1816,274.9314,-0.00012413,-2.262e-05,0.0,0 STARLINK-4487,1 53531U 22101E   23141.95557780 -.00002262  00000-0 -12413-3 0  9998,2 53531  53.2176 345.3542 0001211  85.1816 274.9314 15.08827936 41760,6917.917,95.438,540.62,538.945,0.0
53531.0,STARLINK-4487,PAYLOAD,2023-05-22 06:52:57,15.08834263,0.0001188,53.2179,343.8678,83.6358,276.4769,-5.6326e-05,-1.184e-05,0.0,0 STARLINK-4487,1 53531U 22101E   23142.28677361 -.00001184  00000-0 -56326-4 0  9997,2 53531  53.2179 343.8678 0001188  83.6358 276.4769 15.08834263 41811,6917.898,95.438,540.585,538.941,0.0
53531.0,STARLINK-4487,PAYLOAD,2023-05-22 13:14:29,15.08836358,0.000119,53.2179,342.6813,53.7482,306.362,1.4875e-05,-5.1e-07,0.0,0 STARLINK-4487,1 53531U 22101E   23142.55173102 -.00000051  00000-0  14875-4 0  9995,2 53531  53.2179 342.6813 0001190  53.7482 306.3620 15.08836358 41858,6917.892,95.438,540.58,538.933,0.0
53531.0,STARLINK-4487,PAYLOAD,2023-05-22 19:36:01,15.08846952,0.0001215,53.217,341.4938,54.5258,305.5848,-1.0059e-05,-4.48e-06,0.0,0 STARLINK-4487,1 53531U 22101E   23142.81668598 -.00000448  00000-0 -10059-4 0  9993,2 53531  53.2170 341.4938 0001215  54.5258 305.5848 15.08846952 41890,6917.859,95.437,540.565,538.884,0.0
53531.0,STARLINK-4487,PAYLOAD,2023-05-23 01:57:33,15.08858335,0.0001175,53.2173,340.2994,69.341,290.7708,6.9975e-05,8.26e-06,0.0,0 STARLINK-4487,1 53531U 22101E   23143.08163450  .00000826  00000-0  69975-4 0  9999,2 53531  53.2173 340.2994 0001175  69.3410 290.7708 15.08858335 41934,6917.824,95.436,540.502,538.877,0.0
53531.0,STARLINK-4487,PAYLOAD,2023-05-23 11:29:53,15.08835644,0.0001249,53.2166,338.5161,67.3631,292.7494,0.00015596,2.195e-05,0.0,0 STARLINK-4487,1 53531U 22101E   23143.47908807  .00002195  00000-0  15596-3 0  9995,2 53531  53.2166 338.5161 0001249  67.3631 292.7494 15.08835644 41995,6917.894,95.438,540.623,538.895,0.0
53531.0,STARLINK-4487,PAYLOAD,2023-05-23 21:02:11,15.08854903,0.0001121,53.2165,336.7313,73.6425,286.4691,0.00046599,7.139e-05,0.0,0 STARLINK-4487,1 53531U 22101E   23143.87652634  .00007139  00000-0  46599-3 0  9993,2 53531  53.2165 336.7313 0001121  73.6425 286.4691 15.08854903 42059,6917.835,95.437,540.475,538.924,0.0
53531.0,STARLINK-4487,PAYLOAD,2023-05-24 01:48:20,15.08870091,0.0001092,53.2163,335.8384,74.1921,285.9191,0.00095076,0.00014888,0.0,0 STARLINK-4487,1 53531U 22101E   23144.07524188  .00014888  00000-0  95076-3 0  9991,2 53531  53.2163 335.8384 0001092  74.1921 285.9191 15.08870091 42087,6917.788,95.436,540.409,538.898,0.0
53531.0,STARLINK-4487,PAYLOAD,2023-05-24 03:23:44,15.08844737,0.0001419,53.2163,335.5411,61.9381,298.1755,2.5283e-05,1.14e-06,0.0,0 STARLINK-4487,1 53531U 22101E   23144.14148760  .00000114  00000-0  25283-4 0  9998,2 53531  53.2163 335.5411 0001419  61.9381 298.1755 15.08844737 42093,6917.866,95.437,540.713,538.749,0.0
53531.0,STARLINK-4487,PAYLOAD,2023-05-24 14:31:26,15.08847379,0.0001006,53.2165,333.4594,82.3266,277.784,0.00027803,4.141e-05,0.0,0 STARLINK-4487,1 53531U 22101E   23144.60516535  .00004141  00000-0  27803-3 0  9991,2 53531  53.2165 333.4594 0001006  82.3266 277.7840 15.08847379 42166,6917.858,95.437,540.419,539.027,0.0
53531.0,STARLINK-4487,PAYLOAD,2023-05-25 19:08:22,15.08849326,0.0001089,53.2167,328.1065,93.6901,266.4216,0.00057056,8.807e-05,0.0,0 STARLINK-4487,1 53531U 22101E   23145.79748533  .00008807  00000-0  57056-3 0  9993,2 53531  53.2167 328.1065 0001089  93.6901 266.4216 15.08849326 42340,6917.852,95.437,540.47,538.964,0.0
53531.0,STARLINK-4487,PAYLOAD,2023-05-26 11:02:14,15.08837748,0.0001252,53.2169,325.1338,84.201,275.9125,3.6008e-05,2.85e-06,0.0,0 STARLINK-4487,1 53531U 22101E   23146.45988798  .00000285  00000-0  36008-4 0  9993,2 53531  53.2169 325.1338 0001252  84.2010 275.9125 15.08837748 42441,6917.887,95.438,540.618,538.886,0.0
53531.0,STARLINK-4487,PAYLOAD,2023-05-26 12:37:37,15.08837454,0.0001123,53.2166,324.8365,91.7947,268.3174,4.9117e-05,4.94e-06,0.0,0 STARLINK-4487,1 53531U 22101E   23146.52612852  .00000494  00000-0  49117-4 0  9993,2 53531  53.2166 324.8365 0001123  91.7947 268.3174 15.08837454 42458,6917.888,95.438,540.53,538.976,0.0
53531.0,STARLINK-4487,PAYLOAD,2023-05-26 20:34:33,15.08840382,0.0001099,53.2165,323.3496,93.3434,266.7684,0.00010957,1.456e-05,0.0,0 STARLINK-4487,1 53531U 22101E   23146.85732771  .00001456  00000-0  10957-3 0  9990,2 53531  53.2165 323.3496 0001099  93.3434 266.7684 15.08840382 42505,6917.879,95.438,540.504,538.984,0.0
53531.0,STARLINK-4487,PAYLOAD,2023-05-27 18:49:57,15.08839488,0.0001076,53.2168,319.1868,85.3403,274.7712,6.8884e-05,8.09e-06,0.0,0 STARLINK-4487,1 53531U 22101E   23147.78469221  .00000809  00000-0  68884-4 0  9994,2 53531  53.2168 319.1868 0001076  85.3403 274.7712 15.08839488 42647,6917.882,95.438,540.491,539.003,0.0
53531.0,STARLINK-4487,PAYLOAD,2023-05-28 20:16:07,15.0884834,0.0001051,53.216,314.4287,85.4259,274.6854,0.00021412,3.122e-05,0.0,0 STARLINK-4487,1 53531U 22101E   23148.84452691  .00003122  00000-0  21412-3 0  9991,2 53531  53.2160 314.4287 0001051  85.4259 274.6854 15.08848340 42806,6917.855,95.437,540.447,538.993,0.0
